CYGNUS NG-23            
1 65616U 25208A   25365.75865998  .00015131  00000+0  28223-3 0  9999
2 65616  51.6330  48.2919 0007527 325.0386  35.0108 15.48982944   220
DRAGONFLY               
1 65729U 98067XH  26001.08527733  .00326293  00000+0  16566-2 0  9993
2 65729  51.6246  36.1839 0008823  29.3447 330.8049 15.79965474 16219
1998-067XK              
1 65731U 98067XK  26001.11309507  .00156035  00000+0  12500-2 0  9996
2 65731  51.6289  38.6603 0005324   4.9360 355.1689 15.70017038 16182
RSP-03                  
1 65732U 98067XL  26001.13772130  .00224937  00000+0  14777-2 0  9990
2 65732  51.6264  37.3043 0006448  12.1555 347.9599 15.74470149 16218
GHS-01                  
1 65733U 98067XM  25365.48362391  .00449903  00000+0  17624-2 0  9991
2 65733  51.6279  38.1728 0009735  30.7902 329.3671 15.85182050 16148
YOTSUBA-KULOVER         
1 65941U 98067XN  25365.92111114  .00105776  00000+0  11626-2 0  9999
2 65941  51.6299  43.3820 0003358  33.7491 326.3716 15.62345056 12856
BOTAN                   
1 65942U 98067XP  25365.36531916  .00164057  00000+0  14670-2 0  9993
2 65942  51.6280  44.9156 0004179  19.0341 341.0810 15.67314606 12782
E-KAGAKU-1              
1 65943U 98067XQ  25365.40936882  .00099002  00000+0  10914-2 0  9994
2 65943  51.6389  45.9720 0002126  46.3499 313.7671 15.62302585 12776
HRC MONOBLOCK CAMERA    
1 66052U 98067XR  26001.12601925  .00046548  00000+0  66926-3 0  9992
2 66052  51.6311  44.7469 0001555 288.3153  71.7669 15.55600462 11853
HTV-X1                  
1 66174U 25241A   25365.75865998  .00015131  00000+0  28223-3 0  9996
2 66174  51.6330  48.2919 0007527 325.0386  35.0108 15.48982944   512
SZ-21 MODULE            
1 66515U 25246C   26001.02753310  .00038909  00000+0  40785-3 0  9997
2 66515  41.4762 258.2957 0002791  10.0529 350.0366 15.63632096  7464
SHENZHOU-22             
1 66645U 25272A   25365.92570682  .00024817  00000+0  30104-3 0  9997
2 66645  41.4667 260.1626 0009936 193.3044 166.7534 15.59983725266999
